{"type": "FeatureCollection", "features": [ {"type": "Feature", "properties": {"norad_id": 31024, "name": "FENGYUN 1C DEB", "group": "fengyun-1c-debris", "lat": -37.4524620824548, "lon": -78.34773772586367, "alt_km": 857.4450626838852, "timestamp": "2025-12-26T23:26:42.408147+00:00", "meta": {"OBJECT_NAME": "FENGYUN 1C DEB", "OBJECT_ID": "1999-025BDS", "EPOCH": "2025-12-25T12:08:00.060864", "MEAN_MOTION": 14.20874819, "ECCENTRICITY": 0.0075452, "INCLINATION": 99.0429, "RA_OF_ASC_NODE": 273.1402, "ARG_OF_PERICENTER": 88.574, "MEAN_ANOMALY": 272.4078, "EPHEMERIS_TYPE": 0, "CLASSIFICATION_TYPE": "U", "NORAD_CAT_ID": 31024, "ELEMENT_SET_NO": 999, "REV_AT_EPOCH": 96885, "BSTAR": 0.00029224, "MEAN_MOTION_DOT": 6.05e-06, "MEAN_MOTION_DDOT": 0}, "tle": {"line1": "1 31024U 99025BDS 25359.50555626  .00000605  00000+0  29224-3 0  9995", "line2": "2 31024  99.0429 273.1402 0075452  88.5740 272.4078 14.20874819968859"}}, "geometry": {"type": "Point", "coordinates": [-78.34773772586367, -37.4524620824548]}}, {"type": "Feature", "properties": {"norad_id": 31025, "name": "FENGYUN 1C DEB", "group": "fengyun-1c-debris", "lat": 36.797693348137905, "lon": 177.2400637544446, "alt_km": 943.769575346626, "timestamp": "2025-12-26T23:26:42.408157+00:00", "meta": {"OBJECT_NAME": "FENGYUN 1C DEB", "OBJECT_ID": "1999-025BDT", "EPOCH": "2025-12-07T05:28:07.771008", "MEAN_MOTION": 14.20521805, "ECCENTRICITY": 0.01734931, "INCLINATION": 98.58, "RA_OF_ASC_NODE": 331.5793, "ARG_OF_PERICENTER": 28.741, "MEAN_ANOMALY": 332.3194, "EPHEMERIS_TYPE": 0, "CLASSIFICATION_TYPE": "U", "NORAD_CAT_ID": 31025, "ELEMENT_SET_NO": 999, "REV_AT_EPOCH": 64287, "BSTAR": 0.0012507545, "MEAN_MOTION_DOT": 3.084e-05, "MEAN_MOTION_DDOT": 0}, "tle": {"line1": "1 31025U 99025BDT 25341.22786772  .00003084  00000+0  12508-2 0  9994", "line2": "2 31025  98.5800 331.5793 0173493  28.7410 332.3194 14.20521805642873"}}, "geometry": {"type": "Point", "coordinates": [177.2400637544446, 36.797693348137905]}}, {"type": "Feature", "properties": {"norad_id": 31026, "name": "FENGYUN 1C DEB", "group": "fengyun-1c-debris", "lat": 40.84678966393896, "lon": -72.08461914023668, "alt_km": 968.5727763951727, "timestamp": "2025-12-26T23:26:42.408166+00:00", "meta": {"OBJECT_NAME": "FENGYUN 1C DEB", "OBJECT_ID": "1999-025BDU", "EPOCH": "2025-12-16T14:07:08.116896", "MEAN_MOTION": 13.83400412, "ECCENTRICITY": 0.01344959, "INCLINATION": 98.7801, "RA_OF_ASC_NODE": 285.8947, "ARG_OF_PERICENTER": 172.0946, "MEAN_ANOMALY": 1.2766, "EPHEMERIS_TYPE": 0, "CLASSIFICATION_TYPE": "U", "NORAD_CAT_ID": 31026, "ELEMENT_SET_NO": 999, "REV_AT_EPOCH": 68079, "BSTAR": 0.00014906948, "MEAN_MOTION_DOT": 1.36e-06, "MEAN_MOTION_DDOT": 0}, "tle": {"line1": "1 31026U 99025BDU 25350.58828839  .00000136  00000+0  14907-3 0  9996", "line2": "2 31026  98.7801 285.8947 0134495 172.0946   1.2766 13.83400412680793"}}, "geometry": {"type": "Point", "coordinates": [-72.08461914023668, 40.84678966393896]}}, {"type": "Feature", "properties": {"norad_id": 31028, "name": "FENGYUN 1C DEB", "group": "fengyun-1c-debris", "lat": -16.120147160879075, "lon": -65.55677180113169, "alt_km": 931.6616670036046, "timestamp": "2025-12-26T23:26:42.408175+00:00", "meta": {"OBJECT_NAME": "FENGYUN 1C DEB", "OBJECT_ID": "1999-025BDW", "EPOCH": "2025-12-25T00:50:54.506976", "MEAN_MOTION": 13.89080834, "ECCENTRICITY": 0.01641634, "INCLINATION": 98.7065, "RA_OF_ASC_NODE": 290.0897, "ARG_OF_PERICENTER": 260.5162, "MEAN_ANOMALY": 97.7411, "EPHEMERIS_TYPE": 0, "CLASSIFICATION_TYPE": "U", "NORAD_CAT_ID": 31028, "ELEMENT_SET_NO": 999, "REV_AT_EPOCH": 62174, "BSTAR": 0.00025878519, "MEAN_MOTION_DOT": 3.08e-06, "MEAN_MOTION_DDOT": 0}, "tle": {"line1": "1 31028U 99025BDW 25359.03535309  .00000308  00000+0  25879-3 0  9995", "line2": "2 31028  98.7065 290.0897 0164163 260.5162  97.7411 13.89080834621742"}}, "geometry": {"type": "Point", "coordinates": [-65.55677180113169, -16.120147160879075]}}, {"type": "Feature", "properties": {"norad_id": 31029, "name": "FENGYUN 1C DEB", "group": "fengyun-1c-debris", "lat": 58.77524569160137, "lon": -116.6769119875824, "alt_km": 714.3296632320944, "timestamp": "2025-12-26T23:26:42.408183+00:00", "meta": {"OBJECT_NAME": "FENGYUN 1C DEB", "OBJECT_ID": "1999-025BDX", "EPOCH": "2025-12-26T12:16:28.860096", "MEAN_MOTION": 14.34350237, "ECCENTRICITY": 0.00899021, "INCLINATION": 98.8584, "RA_OF_ASC_NODE": 257.7536, "ARG_OF_PERICENTER": 33.8282, "MEAN_ANOMALY": 143.7095, "EPHEMERIS_TYPE": 0, "CLASSIFICATION_TYPE": "U", "NORAD_CAT_ID": 31029, "ELEMENT_SET_NO": 999, "REV_AT_EPOCH": 97993, "BSTAR": 0.00037891499, "MEAN_MOTION_DOT": 1.068e-05, "MEAN_MOTION_DDOT": 0}, "tle": {"line1": "1 31029U 99025BDX 25360.51144514  .00001068  00000+0  37891-3 0  9996", "line2": "2 31029  98.8584 257.7536 0089902  33.8282 143.7095 14.34350237979936"}}, "geometry": {"type": "Point", "coordinates": [-116.6769119875824, 58.77524569160137]}}, {"type": "Feature", "properties": {"norad_id": 31030, "name": "FENGYUN 1C DEB", "group": "fengyun-1c-debris", "lat": 55.366720839716635, "lon": 49.942295074140965, "alt_km": 788.5160337669786, "timestamp": "2025-12-26T23:26:42.408192+00:00", "meta": {"OBJECT_NAME": "FENGYUN 1C DEB", "OBJECT_ID": "1999-025BDY", "EPOCH": "2025-12-26T03:04:59.043360", "MEAN_MOTION": 14.23723884, "ECCENTRICITY": 0.00270514, "INCLINATION": 98.7657, "RA_OF_ASC_NODE": 62.0048, "ARG_OF_PERICENTER": 45.7714, "MEAN_ANOMALY": 344.5393, "EPHEMERIS_TYPE": 0, "CLASSIFICATION_TYPE": "U", "NORAD_CAT_ID": 31030, "ELEMENT_SET_NO": 999, "REV_AT_EPOCH": 96895, "BSTAR": 0.00084198854, "MEAN_MOTION_DOT": 1.886e-05, "MEAN_MOTION_DDOT": 0}, "tle": {"line1": "1 31030U 99025BDY 25360.12846115  .00001886  00000+0  84199-3 0  9992", "line2": "2 31030  98.7657  62.0048 0027051  45.7714 344.5393 14.23723884968954"}}, "geometry": {"type": "Point", "coordinates": [49.942295074140965, 55.366720839716635]}}, {"type": "Feature", "properties": {"norad_id": 31031, "name": "FENGYUN 1C DEB", "group": "fengyun-1c-debris", "lat": -75.59192477276764, "lon": -43.083511254085614, "alt_km": 843.8284887095779, "timestamp": "2025-12-26T23:26:42.408201+00:00", "meta": {"OBJECT_NAME": "FENGYUN 1C DEB", "OBJECT_ID": "1999-025BDZ", "EPOCH": "2025-12-24T00:55:32.714976", "MEAN_MOTION": 14.2100357, "ECCENTRICITY": 0.00282093, "INCLINATION": 99.0724, "RA_OF_ASC_NODE": 275.4423, "ARG_OF_PERICENTER": 153.5984, "MEAN_ANOMALY": 224.558, "EPHEMERIS_TYPE": 0, "CLASSIFICATION_TYPE": "U", "NORAD_CAT_ID": 31031, "ELEMENT_SET_NO": 999, "REV_AT_EPOCH": 97015, "BSTAR": 0.00038521203, "MEAN_MOTION_DOT": 7.92e-06, "MEAN_MOTION_DDOT": 0}, "tle": {"line1": "1 31031U 99025BDZ 25358.03857309  .00000792  00000+0  38521-3 0  9990", "line2": "2 31031  99.0724 275.4423 0028209 153.5984 224.5580 14.21003570970155"}}, "geometry": {"type": "Point", "coordinates": [-43.083511254085614, -75.59192477276764]}}, {"type": "Feature", "properties": {"norad_id": 31032, "name": "FENGYUN 1C DEB", "group": "fengyun-1c-debris", "lat": 57.307305345274465, "lon": -4.712445522487499, "alt_km": 894.2608345524122, "timestamp": "2025-12-26T23:26:42.408210+00:00", "meta": {"OBJECT_NAME": "FENGYUN 1C DEB", "OBJECT_ID": "1999-025BEA", "EPOCH": "2025-12-26T08:22:06.059136", "MEAN_MOTION": 14.02256316, "ECCENTRICITY": 0.01392035, "INCLINATION": 99.4001, "RA_OF_ASC_NODE": 9.5975, "ARG_OF_PERICENTER": 158.9809, "MEAN_ANOMALY": 331.6929, "EPHEMERIS_TYPE": 0, "CLASSIFICATION_TYPE": "U", "NORAD_CAT_ID": 31032, "ELEMENT_SET_NO": 999, "REV_AT_EPOCH": 95172, "BSTAR": 0.0014588357, "MEAN_MOTION_DOT": 2.387e-05, "MEAN_MOTION_DDOT": 0}, "tle": {"line1": "1 31032U 99025BEA 25360.34868124  .00002387  00000+0  14588-2 0  9993", "line2": "2 31032  99.4001   9.5975 0139203 158.9809 331.6929 14.02256316951724"}}, "geometry": {"type": "Point", "coordinates": [-4.712445522487499, 57.307305345274465]}}, {"type": "Feature", "properties": {"norad_id": 31033, "name": "FENGYUN 1C DEB", "group": "fengyun-1c-debris", "lat": -37.219424663975104, "lon": -14.707992540575134, "alt_km": 836.3493223784199, "timestamp": "2025-12-26T23:26:42.408219+00:00", "meta": {"OBJECT_NAME": "FENGYUN 1C DEB", "OBJECT_ID": "1999-025BEB", "EPOCH": "2025-12-25T11:12:03.348288", "MEAN_MOTION": 14.27466706, "ECCENTRICITY": 0.0154181, "INCLINATION": 98.4399, "RA_OF_ASC_NODE": 337.3578, "ARG_OF_PERICENTER": 73.3068, "MEAN_ANOMALY": 54.6243, "EPHEMERIS_TYPE": 0, "CLASSIFICATION_TYPE": "U", "NORAD_CAT_ID": 31033, "ELEMENT_SET_NO": 999, "REV_AT_EPOCH": 97527, "BSTAR": 0.0002276, "MEAN_MOTION_DOT": 5.91e-06, "MEAN_MOTION_DDOT": 0}, "tle": {"line1": "1 31033U 99025BEB 25359.46670542  .00000591  00000+0  22760-3 0  9997", "line2": "2 31033  98.4399 337.3578 0154181  73.3068  54.6243 14.27466706975274"}}, "geometry": {"type": "Point", "coordinates": [-14.707992540575134, -37.219424663975104]}}, {"type": "Feature", "properties": {"norad_id": 31036, "name": "FENGYUN 1C DEB", "group": "fengyun-1c-debris", "lat": 19.906250800115522, "lon": -68.49825255594439, "alt_km": 681.378861532814, "timestamp": "2025-12-26T23:26:42.408228+00:00", "meta": {"OBJECT_NAME": "FENGYUN 1C DEB", "OBJECT_ID": "1999-025BEE", "EPOCH": "2025-12-26T13:03:16.180992", "MEAN_MOTION": 14.49102873, "ECCENTRICITY": 0.01378361, "INCLINATION": 98.9152, "RA_OF_ASC_NODE": 107.7859, "ARG_OF_PERICENTER": 222.8976, "MEAN_ANOMALY": 200.9574, "EPHEMERIS_TYPE": 0, "CLASSIFICATION_TYPE": "U", "NORAD_CAT_ID": 31036, "ELEMENT_SET_NO": 999, "REV_AT_EPOCH": 57507, "BSTAR": 0.00029588921, "MEAN_MOTION_DOT": 1.211e-05, "MEAN_MOTION_DDOT": 0}, "tle": {"line1": "1 31036U 99025BEE 25360.54393728  .00001211  00000+0  29589-3 0  9995", "line2": "2 31036  98.9152 107.7859 0137836 222.8976 200.9574 14.49102873575070"}}, "geometry": {"type": "Point", "coordinates": [-68.49825255594439, 19.906250800115522]}}]}